{
  "type": "FeatureCollection",
  "features": [
    {
      "type": "Feature",
      "properties": {
        "norad_id": 36074,
        "name": "COSMOS 2251 DEB",
        "group": "cosmos-2251-debris",
        "lat": 69.05235323127924,
        "lon": 91.01919857689202,
        "alt_km": 721.8530942732323,
        "timestamp": "2025-12-23T22:42:33.382916+00:00",
        "meta_object_name": "COSMOS 2251 DEB",
        "meta_object_id": "1993-036AYM",
        "meta_epoch": "2025-12-22T22:57:11.517120",
        "meta_mean_motion": 14.43796912,
        "meta_eccentricity": 0.0041956,
        "meta_inclination": 73.994,
        "meta_ra_of_asc_node": 321.4388,
        "meta_arg_of_pericenter": 50.2945,
        "meta_mean_anomaly": 310.1898,
        "meta_ephemeris_type": 0,
        "meta_classification_type": "U",
        "meta_norad_cat_id": 36074,
        "meta_element_set_no": 999,
        "meta_rev_at_epoch": 86057,
        "meta_bstar": 0.001160749,
        "meta_mean_motion_dot": 3.969e-05,
        "meta_mean_motion_ddot": 0,
        "tle_line1": "1 36074U 93036AYM 25356.95638330  .00003969  00000+0  11607-2 0  9992",
        "tle_line2": "2 36074  73.9940 321.4388 0041956  50.2945 310.1898 14.43796912860575"
      },
      "geometry": {
        "type": "Point",
        "coordinates": [
          91.01919857689202,
          69.05235323127924
        ]
      }
    },
    {
      "type": "Feature",
      "properties": {
        "norad_id": 36366,
        "name": "COSMOS 2251 DEB",
        "group": "cosmos-2251-debris",
        "lat": -16.814407245040112,
        "lon": -112.33884226491544,
        "alt_km": 755.9786468985585,
        "timestamp": "2025-12-23T22:42:33.382926+00:00",
        "meta_object_name": "COSMOS 2251 DEB",
        "meta_object_id": "1993-036AYT",
        "meta_epoch": "2025-12-21T17:11:32.767008",
        "meta_mean_motion": 14.33460542,
        "meta_eccentricity": 0.00902396,
        "meta_inclination": 74.0657,
        "meta_ra_of_asc_node": 256.6822,
        "meta_arg_of_pericenter": 283.124,
        "meta_mean_anomaly": 75.9853,
        "meta_ephemeris_type": 0,
        "meta_classification_type": "U",
        "meta_norad_cat_id": 36366,
        "meta_element_set_no": 999,
        "meta_rev_at_epoch": 86417,
        "meta_bstar": 0.0010533139,
        "meta_mean_motion_dot": 3.019e-05,
        "meta_mean_motion_ddot": 0,
        "tle_line1": "1 36366U 93036AYT 25355.71635147  .00003019  00000+0  10533-2 0  9995",
        "tle_line2": "2 36366  74.0657 256.6822 0090239 283.1240  75.9853 14.33460542864174"
      },
      "geometry": {
        "type": "Point",
        "coordinates": [
          -112.33884226491544,
          -16.814407245040112
        ]
      }
    },
    {
      "type": "Feature",
      "properties": {
        "norad_id": 36367,
        "name": "COSMOS 2251 DEB",
        "group": "cosmos-2251-debris",
        "lat": -71.00042996101584,
        "lon": 156.64339045524966,
        "alt_km": 756.7113636946042,
        "timestamp": "2025-12-23T22:42:33.382936+00:00",
        "meta_object_name": "COSMOS 2251 DEB",
        "meta_object_id": "1993-036AYU",
        "meta_epoch": "2025-12-21T22:35:14.547840",
        "meta_mean_motion": 13.86374101,
        "meta_eccentricity": 0.0261911,
        "meta_inclination": 74.1,
        "meta_ra_of_asc_node": 215.8997,
        "meta_arg_of_pericenter": 286.7373,
        "meta_mean_anomaly": 70.5164,
        "meta_ephemeris_type": 0,
        "meta_classification_type": "U",
        "meta_norad_cat_id": 36367,
        "meta_element_set_no": 999,
        "meta_rev_at_epoch": 57657,
        "meta_bstar": 0.0014790785,
        "meta_mean_motion_dot": 2.218e-05,
        "meta_mean_motion_ddot": 0,
        "tle_line1": "1 36367U 93036AYU 25355.94114060  .00002218  00000+0  14791-2 0  9997",
        "tle_line2": "2 36367  74.1000 215.8997 0261911 286.7373  70.5164 13.86374101576573"
      },
      "geometry": {
        "type": "Point",
        "coordinates": [
          156.64339045524966,
          -71.00042996101584
        ]
      }
    },
    {
      "type": "Feature",
      "properties": {
        "norad_id": 36369,
        "name": "COSMOS 2251 DEB",
        "group": "cosmos-2251-debris",
        "lat": -0.6774798071480952,
        "lon": 48.6775729310215,
        "alt_km": 656.0485251701566,
        "timestamp": "2025-12-23T22:42:33.382946+00:00",
        "meta_object_name": "COSMOS 2251 DEB",
        "meta_object_id": "1993-036AYW",
        "meta_epoch": "2025-12-21T10:25:50.498400",
        "meta_mean_motion": 14.73682344,
        "meta_eccentricity": 0.0010476,
        "meta_inclination": 74.0314,
        "meta_ra_of_asc_node": 53.7689,
        "meta_arg_of_pericenter": 128.4088,
        "meta_mean_anomaly": 231.8027,
        "meta_ephemeris_type": 0,
        "meta_classification_type": "U",
        "meta_norad_cat_id": 36369,
        "meta_element_set_no": 999,
        "meta_rev_at_epoch": 86050,
        "meta_bstar": 0.00084133,
        "meta_mean_motion_dot": 5.466e-05,
        "meta_mean_motion_ddot": 0,
        "tle_line1": "1 36369U 93036AYW 25355.43461225  .00005466  00000+0  84133-3 0  9997",
        "tle_line2": "2 36369  74.0314  53.7689 0010476 128.4088 231.8027 14.73682344860509"
      },
      "geometry": {
        "type": "Point",
        "coordinates": [
          48.6775729310215,
          -0.6774798071480952
        ]
      }
    },
    {
      "type": "Feature",
      "properties": {
        "norad_id": 36371,
        "name": "COSMOS 2251 DEB",
        "group": "cosmos-2251-debris",
        "lat": 27.23991465028561,
        "lon": -48.7349398332388,
        "alt_km": 651.4663786756691,
        "timestamp": "2025-12-23T22:42:33.382956+00:00",
        "meta_object_name": "COSMOS 2251 DEB",
        "meta_object_id": "1993-036AYY",
        "meta_epoch": "2025-12-22T18:16:18.245856",
        "meta_mean_motion": 14.70809899,
        "meta_eccentricity": 0.0008802,
        "meta_inclination": 74.0128,
        "meta_ra_of_asc_node": 142.0551,
        "meta_arg_of_pericenter": 181.6925,
        "meta_mean_anomaly": 178.4218,
        "meta_ephemeris_type": 0,
        "meta_classification_type": "U",
        "meta_norad_cat_id": 36371,
        "meta_element_set_no": 999,
        "meta_rev_at_epoch": 71592,
        "meta_bstar": 0.0022131019,
        "meta_mean_motion_dot": 0.00013524,
        "meta_mean_motion_ddot": 0,
        "tle_line1": "1 36371U 93036AYY 25356.76132229  .00013524  00000+0  22131-2 0  9999",
        "tle_line2": "2 36371  74.0128 142.0551 0008802 181.6925 178.4218 14.70809899715922"
      },
      "geometry": {
        "type": "Point",
        "coordinates": [
          -48.7349398332388,
          27.23991465028561
        ]
      }
    },
    {
      "type": "Feature",
      "properties": {
        "norad_id": 36379,
        "name": "COSMOS 2251 DEB",
        "group": "cosmos-2251-debris",
        "lat": -2.2162813761551448,
        "lon": -74.41655293811708,
        "alt_km": 755.5061906063147,
        "timestamp": "2025-12-23T22:42:33.382966+00:00",
        "meta_object_name": "COSMOS 2251 DEB",
        "meta_object_id": "1993-036AZG",
        "meta_epoch": "2025-12-21T02:14:38.502816",
        "meta_mean_motion": 14.36091919,
        "meta_eccentricity": 0.00448164,
        "meta_inclination": 74.0129,
        "meta_ra_of_asc_node": 291.4624,
        "meta_arg_of_pericenter": 57.9805,
        "meta_mean_anomaly": 317.791,
        "meta_ephemeris_type": 0,
        "meta_classification_type": "U",
        "meta_norad_cat_id": 36379,
        "meta_element_set_no": 999,
        "meta_rev_at_epoch": 64948,
        "meta_bstar": 0.00021634378,
        "meta_mean_motion_dot": 6.11e-06,
        "meta_mean_motion_ddot": 0,
        "tle_line1": "1 36379U 93036AZG 25355.09350119  .00000611  00000+0  21634-3 0  9993",
        "tle_line2": "2 36379  74.0129 291.4624 0044816  57.9805 317.7910 14.36091919649480"
      },
      "geometry": {
        "type": "Point",
        "coordinates": [
          -74.41655293811708,
          -2.2162813761551448
        ]
      }
    },
    {
      "type": "Feature",
      "properties": {
        "norad_id": 36385,
        "name": "COSMOS 2251 DEB",
        "group": "cosmos-2251-debris",
        "lat": -14.931562668587032,
        "lon": 128.22823703546894,
        "alt_km": 580.0343088267446,
        "timestamp": "2025-12-23T22:42:33.382976+00:00",
        "meta_object_name": "COSMOS 2251 DEB",
        "meta_object_id": "1993-036AZN",
        "meta_epoch": "2025-12-20T19:47:03.334560",
        "meta_mean_motion": 14.72696016,
        "meta_eccentricity": 0.01415357,
        "meta_inclination": 73.9698,
        "meta_ra_of_asc_node": 138.7285,
        "meta_arg_of_pericenter": 311.3318,
        "meta_mean_anomaly": 47.5743,
        "meta_ephemeris_type": 0,
        "meta_classification_type": "U",
        "meta_norad_cat_id": 36385,
        "meta_element_set_no": 999,
        "meta_rev_at_epoch": 85221,
        "meta_bstar": 0.0008039038,
        "meta_mean_motion_dot": 5.978e-05,
        "meta_mean_motion_ddot": 0,
        "tle_line1": "1 36385U 93036AZN 25354.82434415  .00005978  00000+0  80390-3 0  9997",
        "tle_line2": "2 36385  73.9698 138.7285 0141535 311.3318  47.5743 14.72696016852212"
      },
      "geometry": {
        "type": "Point",
        "coordinates": [
          128.22823703546894,
          -14.931562668587032
        ]
      }
    }
  ]
}